STARLINK-37715          
1 69126U 26110C   26162.91668981 -.02360620  00000+0 -56348-1 0  9996
2 69126  97.2851 359.3399 0001744  87.4753  28.4255 15.44917225  4807
STARLINK-37706          
1 69127U 26110D   26162.91668981 -.02379328  00000+0 -56145-1 0  9997
2 69127  97.2851 359.3457 0001770  80.2209  48.0191 15.45279784  4808
STARLINK-37723          
1 69128U 26110E   26162.91668981 -.02403772  00000+0 -56227-1 0  9990
2 69128  97.2840 359.3513 0001682  88.6962  52.4716 15.45571955  4807
STARLINK-37720          
1 69129U 26110F   26162.92784891  .00041093  00000+0  75240-3 0  9999
2 69129  97.2851 359.1176 0001498  92.8853 267.2570 15.49222876  4784
STARLINK-37533          
1 69130U 26110G   26162.91668981 -.02399873  00000+0 -54125-1 0  9994
2 69130  97.2838 359.3667 0001883  80.0860  97.4675 15.46620704  4804
STARLINK-37530          
1 69131U 26110H   26162.91668981 -.02391871  00000+0 -53332-1 0  9994
2 69131  97.2839 359.3726 0002015  76.7291 113.1159 15.46936982  4801
STARLINK-37660          
1 69132U 26110J   26162.91668981  .00143753  00000+0  25996-2 0  9991
2 69132  97.2841 359.2838 0000649 118.8406 233.3623 15.49158913  4809
STARLINK-37633          
1 69133U 26110K   26162.91668981  .00143552  00000+0  25968-2 0  9998
2 69133  97.2842 359.2975 0001081 130.0678 253.1084 15.49150794  4812
STARLINK-37361          
1 69134U 26110L   26162.91668981 -.02310677  00000+0 -50510-1 0  9997
2 69134  97.2841 359.3878 0002263  90.7700 134.4902 15.47982593  4814
STARLINK-37372          
1 69135U 26110M   26162.91668981  .00142377  00000+0  25792-2 0  9999
2 69135  97.2841 359.3060 0001042  99.8612 302.6366 15.49114544  4812
STARLINK-37531          
1 69136U 26110N   26162.91668981  .00148199  00000+0  26855-2 0  9999
2 69136  97.2842 359.3725 0001643  72.3380 125.4485 15.49083101  4814
STARLINK-37662          
1 69137U 26110P   26162.91668981  .00139992  00000+0  25328-2 0  9995
2 69137  97.2844 359.3068 0001614  71.8787 332.3491 15.49159621  4817
STARLINK-37658          
1 69138U 26110Q   26162.91668981  .00122986  00000+0  22331-2 0  9992
2 69138  97.2840 359.2310 0001061 112.1754 115.4968 15.49121257  4815
STARLINK-37659          
1 69139U 26110R   26162.91668981  .00135265  00000+0  24534-2 0  9994
2 69139  97.2846 359.2136 0001536  94.2725  90.5319 15.49105587  4814
STARLINK-37653          
1 69140U 26110S   26162.82143560  .00034599  00000+0  63474-3 0  9992
2 69140  97.2849 359.1121 0001041  87.9603 272.1768 15.49202553  4779
STARLINK-37654          
1 69141U 26110T   26162.91668981  .00151009  00000+0  27328-2 0  9995
2 69141  97.2841 359.3111 0001480  94.0759 319.7916 15.49110752  4818
STARLINK-37655          
1 69142U 26110U   26162.91668981  .00136707  00000+0  24810-2 0  9997
2 69142  97.2845 359.3573 0000908  67.5408  97.6425 15.49083406  4817
STARLINK-37636          
1 69143U 26110V   26162.91668981 -.02583351  00000+0 -49959-1 0  9993
2 69143  97.2844 359.4258 0001535 107.6125 219.4982 15.51249712  4816
STARLINK-37638          
1 69144U 26110W   26162.91668981 -.02703344  00000+0 -52014-1 0  9996
2 69144  97.2836 359.4302 0001348  97.9755 242.1550 15.51564714  4816
STARLINK-37657          
1 69145U 26110X   26162.91668981  .00123547  00000+0  22428-2 0  9991
2 69145  97.2841 359.3097 0001753 101.4867 311.1791 15.49124589  4866
STARLINK-37639          
1 69146U 26110Y   26162.91668981 -.02401660  00000+0 -45355-1 0  9994
2 69146  97.2844 359.4447 0001472 105.8978 253.3666 15.52257132  4862
STARLINK-37661          
1 69147U 26110Z   26162.91668981  .00117531  00000+0  21368-2 0  9991
2 69147  97.2845 359.2586 0001689  96.5422 196.6550 15.49104725  4862
STARLINK-37395          
1 69148U 26111A   26162.58068998  .00259241  00000+0  12764-2 0  9993
2 69148  53.1579 179.7589 0001872  86.8594 273.2643 15.80899021  3377
STARLINK-37346          
1 69149U 26111B   26162.91668981 -.02506045  00000+0 -26924-1 0  9992
2 69149  53.1594 178.2117 0001101  65.8601 339.4796 15.66597804  4707
STARLINK-37332          
1 69150U 26111C   26162.91668981 -.02459868  00000+0 -37071-1 0  9999
2 69150  53.1595 178.3914 0001152 103.6965 213.5221 15.57941265  4705
STARLINK-37297          
1 69151U 26111D   26162.89550029  .00255900  00000+0  12515-2 0  9994
2 69151  53.1577 178.1655 0000815 157.2268 202.8791 15.81054864  3420
STARLINK-37317          
1 69152U 26111E   26162.89354073  .00407000  00000+0  19553-2 0  9995
2 69152  53.1576 178.1533 0001794 163.5769 196.5312 15.81036234  3427
STARLINK-37374          
1 69153U 26111F   26162.91668981 -.02110868  00000+0 -37374-1 0  9992
2 69153  53.1584 178.5282 0001898  92.6205 156.3250 15.53044046  4700
STARLINK-37235          
1 69154U 26111G   26162.91668981 -.00283783  00000+0 -52511-2 0  9999
2 69154  53.1591 178.7619 0000680  94.6610  39.6803 15.49474382  4707
STARLINK-37329          
1 69155U 26111H   26162.89399142  .00374626  00000+0  18073-2 0  9997
2 69155  53.1578 178.1566 0001464 149.6723 210.4385 15.81030403  3425
