OBJECT_NAME,OBJECT_ID,EPOCH,MEAN_MOTION,ECCENTRICITY,INCLINATION,RA_OF_ASC_NODE,ARG_OF_PERICENTER,MEAN_ANOMALY,EPHEMERIS_TYPE,CLASSIFICATION_TYPE,NORAD_CAT_ID,ELEMENT_SET_NO,REV_AT_EPOCH,BSTAR,MEAN_MOTION_DOT,MEAN_MOTION_DDOT
STARLINK-37715,2026-110C,2026-06-11T22:00:01.999584,15.44917225,.00017447,97.2851,359.3399,87.4753,28.4255,0,U,69126,999,480,-.56347583E-1,-.236062E-1,0
STARLINK-37706,2026-110D,2026-06-11T22:00:01.999584,15.45279784,.00017701,97.2851,359.3457,80.2209,48.0191,0,U,69127,999,480,-.56145314E-1,-.2379328E-1,0
STARLINK-37723,2026-110E,2026-06-11T22:00:01.999584,15.45571955,.00016829,97.2840,359.3513,88.6962,52.4716,0,U,69128,999,480,-.56226745E-1,-.2403772E-1,0
STARLINK-37720,2026-110F,2026-06-11T22:16:06.145824,15.49222876,.00014987,97.2851,359.1176,92.8853,267.2570,0,U,69129,999,478,.75239894E-3,.41093E-3,0
STARLINK-37533,2026-110G,2026-06-11T22:00:01.999584,15.46620704,.0001883,97.2838,359.3667,80.0860,97.4675,0,U,69130,999,480,-.54124933E-1,-.2399873E-1,0
STARLINK-37530,2026-110H,2026-06-11T22:00:01.999584,15.46936982,.00020157,97.2839,359.3726,76.7291,113.1159,0,U,69131,999,480,-.53331824E-1,-.2391871E-1,0
STARLINK-37660,2026-110J,2026-06-11T22:00:01.999584,15.49158913,.00006497,97.2841,359.2838,118.8406,233.3623,0,U,69132,999,480,.2599588E-2,.143753E-2,0
STARLINK-37633,2026-110K,2026-06-11T22:00:01.999584,15.49150794,.00010816,97.2842,359.2975,130.0678,253.1084,0,U,69133,999,481,.25967619E-2,.143552E-2,0
STARLINK-37361,2026-110L,2026-06-11T22:00:01.999584,15.47982593,.0002263,97.2841,359.3878,90.7700,134.4902,0,U,69134,999,481,-.50510405E-1,-.2310677E-1,0
STARLINK-37372,2026-110M,2026-06-11T22:00:01.999584,15.49114544,.00010429,97.2841,359.3060,99.8612,302.6366,0,U,69135,999,481,.25791626E-2,.142377E-2,0
STARLINK-37531,2026-110N,2026-06-11T22:00:01.999584,15.49083101,.00016432,97.2842,359.3725,72.3380,125.4485,0,U,69136,999,481,.26854899E-2,.148199E-2,0
STARLINK-37662,2026-110P,2026-06-11T22:00:01.999584,15.49159621,.00016142,97.2844,359.3068,71.8787,332.3491,0,U,69137,999,481,.25327599E-2,.139992E-2,0
STARLINK-37658,2026-110Q,2026-06-11T22:00:01.999584,15.49121257,.00010613,97.2840,359.2310,112.1754,115.4968,0,U,69138,999,481,.22331343E-2,.122986E-2,0
STARLINK-37659,2026-110R,2026-06-11T22:00:01.999584,15.49105587,.00015369,97.2846,359.2136,94.2725,90.5319,0,U,69139,999,481,.24534027E-2,.135265E-2,0
STARLINK-37653,2026-110S,2026-06-11T19:42:52.035840,15.49202553,.00010417,97.2849,359.1121,87.9603,272.1768,0,U,69140,999,477,.63474478E-3,.34599E-3,0
STARLINK-37654,2026-110T,2026-06-11T22:00:01.999584,15.49110752,.00014801,97.2841,359.3111,94.0759,319.7916,0,U,69141,999,481,.27327848E-2,.151009E-2,0
STARLINK-37655,2026-110U,2026-06-11T22:00:01.999584,15.49083406,.00009085,97.2845,359.3573,67.5408,97.6425,0,U,69142,999,481,.24810174E-2,.136707E-2,0
STARLINK-37636,2026-110V,2026-06-11T22:00:01.999584,15.51249712,.00015359,97.2844,359.4258,107.6125,219.4982,0,U,69143,999,481,-.49959299E-1,-.2583351E-1,0
STARLINK-37638,2026-110W,2026-06-11T22:00:01.999584,15.51564714,.00013488,97.2836,359.4302,97.9755,242.1550,0,U,69144,999,481,-.52014207E-1,-.2703344E-1,0
STARLINK-37657,2026-110X,2026-06-11T22:00:01.999584,15.49124589,.00017538,97.2841,359.3097,101.4867,311.1791,0,U,69145,999,486,.22428489E-2,.123547E-2,0
STARLINK-37639,2026-110Y,2026-06-11T22:00:01.999584,15.52257132,.00014725,97.2844,359.4447,105.8978,253.3666,0,U,69146,999,486,-.45355078E-1,-.240166E-1,0
STARLINK-37661,2026-110Z,2026-06-11T22:00:01.999584,15.49104725,.0001689,97.2845,359.2586,96.5422,196.6550,0,U,69147,999,486,.21368393E-2,.117531E-2,0
STARLINK-37395,2026-111A,2026-06-11T13:56:11.614272,15.80899021,.0001872,53.1579,179.7589,86.8594,273.2643,0,U,69148,999,337,.12764E-2,.259241E-2,0
STARLINK-37346,2026-111B,2026-06-11T22:00:01.999584,15.66597804,.00011012,53.1594,178.2117,65.8601,339.4796,0,U,69149,999,470,-.2692446E-1,-.2506045E-1,0
STARLINK-37332,2026-111C,2026-06-11T22:00:01.999584,15.57941265,.0001152,53.1595,178.3914,103.6965,213.5221,0,U,69150,999,470,-.37071037E-1,-.2459868E-1,0
STARLINK-37297,2026-111D,2026-06-11T21:29:31.225056,15.81054864,.00008152,53.1577,178.1655,157.2268,202.8791,0,U,69151,999,342,.12514719E-2,.2559E-2,0
STARLINK-37317,2026-111E,2026-06-11T21:26:41.919072,15.81036234,.00017942,53.1576,178.1533,163.5769,196.5312,0,U,69152,999,342,.19552556E-2,.407E-2,0
STARLINK-37374,2026-111F,2026-06-11T22:00:01.999584,15.53044046,.00018982,53.1584,178.5282,92.6205,156.3250,0,U,69153,999,470,-.3737414E-1,-.2110868E-1,0
STARLINK-37235,2026-111G,2026-06-11T22:00:01.999584,15.49474382,.00006809,53.1591,178.7619,94.6610,39.6803,0,U,69154,999,470,-.52511376E-2,-.283783E-2,0
STARLINK-37329,2026-111H,2026-06-11T21:27:20.858688,15.81030403,.00014648,53.1578,178.1566,149.6723,210.4385,0,U,69155,999,342,.1807313E-2,.374626E-2,0
